EUTELSAT 21B            
1 38992U 12062B   25299.83521838  .00000142  00000+0  00000+0 0  9992
2 38992   0.0716   4.2366 0002958 221.2914 132.2347  1.00269619 47482
EUTELSAT 70B            
1 39020U 12069A   25299.84040465 -.00000032  00000+0  00000+0 0  9994
2 39020   0.0683  13.5303 0004343 202.4849 192.5014  1.00271890 47169
EUTELSAT 117 WEST A     
1 39122U 13012A   25299.66483083 -.00000001  00000+0  00000+0 0  9999
2 39122   0.0435  67.0485 0002637 147.8260 302.9756  1.00272904 46093
EUTELSAT 7B             
1 39163U 13022A   25299.83235837  .00000060  00000+0  00000+0 0  9990
2 39163   0.0741  17.9581 0002007 293.6917  30.4662  1.00271605 45612
EXPRESS-AT1             
1 39612U 14010A   25298.66852677  .00000091  00000+0  00000+0 0  9998
2 39612   0.0178 242.8135 0000423 232.8154 215.3617  1.00271937 42469
EXPRESS-AT2             
1 39613U 14010B   25297.78937716 -.00000268  00000+0  00000+0 0  9996
2 39613   0.0154 248.5620 0000373 252.1167 316.8159  1.00272360 42143
EUTELSAT 3B             
1 39773U 14030A   25299.83157837  .00000032  00000+0  00000+0 0  9999
2 39773   0.0686  14.8203 0004360 189.3952 133.7280  1.00272867 41720
EUTELSAT 115 WEST B     
1 40425U 15010B   25299.59411046 -.00000013  00000+0  00000+0 0  9992
2 40425   0.0106 104.0447 0000244 139.4931 250.6799  1.00267523 39055
